[{"OBJECT_NAME":"ION SCV-015","OBJECT_ID":"2023-185H","EPOCH":"2026-03-09T22:36:51.209568","MEAN_MOTION":15.3163624,"ECCENTRICITY":0.00109059,"INCLINATION":97.5772,"RA_OF_ASC_NODE":155.3582,"ARG_OF_PERICENTER":92.3805,"MEAN_ANOMALY":267.8685,"EPHEMERIS_TYPE":0,"CLASSIFICATION_TYPE":"U","NORAD_CAT_ID":58469,"ELEMENT_SET_NO":999,"REV_AT_EPOCH":12588,"BSTAR":0.00030895808,"MEAN_MOTION_DOT":9.376e-5,"MEAN_MOTION_DDOT":0},{"OBJECT_NAME":"STARLINK-35445","OBJECT_ID":"2025-223AC","EPOCH":"2026-03-09T21:15:27.598176","MEAN_MOTION":15.30207832,"ECCENTRICITY":9.957e-5,"INCLINATION":53.1593,"RA_OF_ASC_NODE":293.4007,"ARG_OF_PERICENTER":161.3789,"MEAN_ANOMALY":198.7248,"EPHEMERIS_TYPE":0,"CLASSIFICATION_TYPE":"U","NORAD_CAT_ID":65880,"ELEMENT_SET_NO":999,"REV_AT_EPOCH":2423,"BSTAR":0.00087466974,"MEAN_MOTION_DOT":0.00025642,"MEAN_MOTION_DDOT":0}]
